[{"OBJECT_NAME":"BEIJING-3B","OBJECT_ID":"2022-103A","EPOCH":"2026-03-09T23:12:38.807712","MEAN_MOTION":14.86939199,"ECCENTRICITY":0.00253745,"INCLINATION":97.8061,"RA_OF_ASC_NODE":148.0995,"ARG_OF_PERICENTER":23.8103,"MEAN_ANOMALY":336.4281,"EPHEMERIS_TYPE":0,"CLASSIFICATION_TYPE":"U","NORAD_CAT_ID":53587,"ELEMENT_SET_NO":999,"REV_AT_EPOCH":19234,"BSTAR":0.00021963538,"MEAN_MOTION_DOT":1.92e-5,"MEAN_MOTION_DDOT":0},{"OBJECT_NAME":"ARIANE 44LP DEB","OBJECT_ID":"1991-015J","EPOCH":"2026-03-09T22:26:55.302720","MEAN_MOTION":2.92296354,"ECCENTRICITY":0.66473944,"INCLINATION":7.9543,"RA_OF_ASC_NODE":326.3655,"ARG_OF_PERICENTER":348.2408,"MEAN_ANOMALY":240.6254,"EPHEMERIS_TYPE":0,"CLASSIFICATION_TYPE":"U","NORAD_CAT_ID":25928,"ELEMENT_SET_NO":999,"REV_AT_EPOCH":29627,"BSTAR":0.0033059742,"MEAN_MOTION_DOT":3.82e-6,"MEAN_MOTION_DDOT":0}]
